[{"OBJECT_NAME":"STARLINK-31420","OBJECT_ID":"2024-046Y","EPOCH":"2026-03-09T11:26:24.936000","MEAN_MOTION":15.30182009,"ECCENTRICITY":0.00013933,"INCLINATION":53.1591,"RA_OF_ASC_NODE":156.5581,"ARG_OF_PERICENTER":29.2244,"MEAN_ANOMALY":330.8835,"EPHEMERIS_TYPE":0,"CLASSIFICATION_TYPE":"U","NORAD_CAT_ID":59223,"ELEMENT_SET_NO":999,"REV_AT_EPOCH":11300,"BSTAR":2.0839412e-5,"MEAN_MOTION_DOT":2.58e-6,"MEAN_MOTION_DDOT":0},{"OBJECT_NAME":"TEVEL2-1","OBJECT_ID":"2025-052H","EPOCH":"2026-03-09T15:32:51.927072","MEAN_MOTION":15.30341923,"ECCENTRICITY":0.0004767,"INCLINATION":97.3991,"RA_OF_ASC_NODE":324.7682,"ARG_OF_PERICENTER":104.8919,"MEAN_ANOMALY":255.2849,"EPHEMERIS_TYPE":0,"CLASSIFICATION_TYPE":"U","NORAD_CAT_ID":63217,"ELEMENT_SET_NO":999,"REV_AT_EPOCH":5485,"BSTAR":0.000706,"MEAN_MOTION_DOT":0.00020683,"MEAN_MOTION_DDOT":0}]
